NORAD_CAT_ID,OBJECT_NAME,OBJECT_TYPE,EPOCH,MEAN_MOTION,ECCENTRICITY,INCLINATION,RA_OF_ASC_NODE,ARG_OF_PERICENTER,MEAN_ANOMALY,BSTAR,MEAN_MOTION_DOT,MEAN_MOTION_DDOT,TLE_LINE0,TLE_LINE1,TLE_LINE2,SEMIMAJOR_AXIS,PERIOD,APOGEE,PERIGEE,DECAYED
54006.0,STARLINK-5096,PAYLOAD,2024-06-10 08:39:05,15.08848416,0.0001328,53.2169,194.7744,99.2979,260.8163,0.00017486,2.497e-05,0.0,0 STARLINK-5096,1 54006U 22125AU  24162.36048233  .00002497  00000-0  17486-3 0  9992,2 54006  53.2169 194.7744 0001328  99.2979 260.8163 15.08848416 93247,6917.855,95.437,540.638,538.801,0.0
54006.0,STARLINK-5096,PAYLOAD,2024-06-11 05:19:06,15.08839646,0.0001213,53.2145,190.9099,98.6851,261.4279,0.00025118,3.712e-05,0.0,0 STARLINK-5096,1 54006U 22125AU  24163.22160859  .00003712  00000-0  25118-3 0  9999,2 54006  53.2145 190.9099 0001213  98.6851 261.4279 15.08839646 93438,6917.881,95.438,540.586,538.907,0.0
54006.0,STARLINK-5096,PAYLOAD,2024-06-11 08:29:53,15.08842626,0.0001219,53.2148,190.3149,100.0312,260.0817,0.00028217,4.206e-05,0.0,0 STARLINK-5096,1 54006U 22125AU  24163.35408767  .00004206  00000-0  28217-3 0  9998,2 54006  53.2148 190.3149 0001219 100.0312 260.0817 15.08842626 93397,6917.872,95.437,540.581,538.894,0.0
54006.0,STARLINK-5096,PAYLOAD,2024-06-12 01:59:07,15.08835774,0.0001299,53.2152,187.0441,100.1336,259.9803,-3.7924e-05,-8.91e-06,0.0,0 STARLINK-5096,1 54006U 22125AU  24164.08273027 -.00000891  00000-0 -37924-4 0  9992,2 54006  53.2152 187.0441 0001299 100.1336 259.9803 15.08835774 93562,6917.893,95.438,540.657,538.86,0.0
54006.0,STARLINK-5096,PAYLOAD,2024-06-12 06:45:17,15.08836033,0.0001266,53.2162,186.1522,102.4461,257.6673,-8.8211e-06,-4.28e-06,0.0,0 STARLINK-5096,1 54006U 22125AU  24164.28145373 -.00000428  00000-0 -88211-5 0  9998,2 54006  53.2162 186.1522 0001266 102.4461 257.6673 15.08836033 93537,6917.893,95.438,540.633,538.882,0.0
54006.0,STARLINK-5096,PAYLOAD,2024-06-12 17:52:59,15.08833824,0.0001276,53.2166,184.0728,98.7606,261.353,-1.0635e-05,-4.57e-06,0.0,0 STARLINK-5096,1 54006U 22125AU  24164.74513589 -.00000457  00000-0 -10635-4 0  9993,2 54006  53.2166 184.0728 0001276  98.7606 261.3530 15.08833824 93602,6917.899,95.438,540.647,538.882,0.0
54006.0,STARLINK-5096,PAYLOAD,2024-06-13 05:00:41,15.08835322,0.0001097,53.2155,181.99,96.6322,263.4795,3.5324e-05,2.74e-06,0.0,0 STARLINK-5096,1 54006U 22125AU  24165.20881444  .00000274  00000-0  35324-4 0  9990,2 54006  53.2155 181.9900 0001097  96.6322 263.4795 15.08835322 93736,6917.895,95.438,540.519,539.001,0.0
54006.0,STARLINK-5096,PAYLOAD,2024-06-13 08:11:27,15.08837107,0.0001165,53.2159,181.3964,97.8413,262.2711,5.3987e-05,5.71e-06,0.0,0 STARLINK-5096,1 54006U 22125AU  24165.34129317  .00000571  00000-0  53987-4 0  9994,2 54006  53.2159 181.3964 0001165  97.8413 262.2711 15.08837107 93697,6917.889,95.438,540.56,538.948,0.0
54006.0,STARLINK-5096,PAYLOAD,2024-06-14 06:26:51,15.08835097,0.0001138,53.216,177.2317,90.5324,269.5799,9.2878e-05,1.19e-05,0.0,0 STARLINK-5096,1 54006U 22125AU  24166.26865618  .00001190  00000-0  92878-4 0  9997,2 54006  53.2160 177.2317 0001138  90.5324 269.5799 15.08835097 93834,6917.895,95.438,540.548,538.973,0.0
54006.0,STARLINK-5096,PAYLOAD,2024-06-15 07:53:01,15.08845178,0.0001152,53.2158,172.4734,82.3551,277.7572,9.9538e-05,1.297e-05,0.0,0 STARLINK-5096,1 54006U 22125AU  24167.32849039  .00001297  00000-0  99538-4 0  9992,2 54006  53.2158 172.4734 0001152  82.3551 277.7572 15.08845178 93996,6917.865,95.437,540.526,538.933,0.0
54006.0,STARLINK-5096,PAYLOAD,2024-06-15 17:25:20,15.0884374,0.0001162,53.216,170.6896,86.0605,274.0519,8.0409e-05,9.92e-06,0.0,0 STARLINK-5096,1 54006U 22125AU  24167.72593105  .00000992  00000-0  80409-4 0  9994,2 54006  53.2160 170.6896 0001162  86.0605 274.0519 15.08843740 94052,6917.869,95.437,540.538,538.93,0.0
54006.0,STARLINK-5096,PAYLOAD,2024-06-16 07:43:48,15.08842056,0.0001236,53.2162,168.0132,87.0746,273.0388,4.554e-05,4.37e-06,0.0,0 STARLINK-5096,1 54006U 22125AU  24168.32209260  .00000437  00000-0  45540-4 0  9998,2 54006  53.2162 168.0132 0001236  87.0746 273.0388 15.08842056 94149,6917.874,95.437,540.594,538.884,0.0
54006.0,STARLINK-5096,PAYLOAD,2024-06-16 17:16:07,15.08844117,0.0001265,53.2162,166.2294,86.2022,273.9115,3.4365e-05,2.59e-06,0.0,0 STARLINK-5096,1 54006U 22125AU  24168.71953097  .00000259  00000-0  34365-4 0  9990,2 54006  53.2162 166.2294 0001265  86.2022 273.9115 15.08844117 94202,6917.868,95.437,540.608,538.858,0.0
54006.0,STARLINK-5096,PAYLOAD,2024-06-17 17:06:54,15.0884198,0.0001285,53.2161,161.7687,86.3736,273.7403,2.0858e-05,4.4e-07,0.0,0 STARLINK-5096,1 54006U 22125AU  24169.71313000  .00000044  00000-0  20858-4 0  9999,2 54006  53.2161 161.7687 0001285  86.3736 273.7403 15.08841980 94351,6917.874,95.437,540.628,538.85,0.0
54006.0,STARLINK-5096,PAYLOAD,2024-06-18 02:39:13,15.08837392,0.0001301,53.2162,159.9845,87.4444,272.6697,2.8139e-05,1.6e-06,0.0,0 STARLINK-5096,1 54006U 22125AU  24170.11057281  .00000160  00000-0  28139-4 0  9990,2 54006  53.2162 159.9845 0001301  87.4444 272.6697 15.08837392 94472,6917.888,95.438,540.653,538.853,0.0
54006.0,STARLINK-5096,PAYLOAD,2024-06-18 09:00:45,15.08839422,0.0001302,53.2162,158.7937,94.2286,265.8855,3.3365e-05,2.43e-06,0.0,0 STARLINK-5096,1 54006U 22125AU  24170.37553101  .00000243  00000-0  33365-4 0  9999,2 54006  53.2162 158.7937 0001302  94.2286 265.8855 15.08839422 94456,6917.882,95.438,540.648,538.846,0.0
54006.0,STARLINK-5096,PAYLOAD,2024-06-19 04:05:23,15.08838346,0.0001334,53.2162,155.2244,97.2801,262.8343,1.8777e-06,-2.58e-06,0.0,0 STARLINK-5096,1 54006U 22125AU  24171.17041292 -.00000258  00000-0  18777-5 0  9999,2 54006  53.2162 155.2244 0001334  97.2801 262.8343 15.08838346 94633,6917.885,95.438,540.673,538.828,0.0
54006.0,STARLINK-5096,PAYLOAD,2024-06-19 08:51:33,15.08836636,0.0001378,53.2163,154.3326,98.0597,262.0551,1.0657e-05,-1.18e-06,0.0,0 STARLINK-5096,1 54006U 22125AU  24171.36913388 -.00000118  00000-0  10657-4 0  9997,2 54006  53.2163 154.3326 0001378  98.0597 262.0551 15.08836636 94604,6917.891,95.438,540.709,538.802,0.0
54006.0,STARLINK-5096,PAYLOAD,2024-06-20 05:31:33,15.08840983,0.0001326,53.2159,150.4683,93.1845,266.9298,6.4317e-05,7.36e-06,0.0,0 STARLINK-5096,1 54006U 22125AU  24172.23025031  .00000736  00000-0  64317-4 0  9990,2 54006  53.2159 150.4683 0001326  93.1845 266.9298 15.08840983 94798,6917.877,95.437,540.66,538.825,0.0
54006.0,STARLINK-5096,PAYLOAD,2024-06-20 08:42:19,15.08841494,0.0001327,53.2159,149.8735,92.8004,267.314,6.5562e-05,7.56e-06,0.0,0 STARLINK-5096,1 54006U 22125AU  24172.36272987  .00000756  00000-0  65562-4 0  9993,2 54006  53.2159 149.8735 0001327  92.8004 267.3140 15.08841494 94757,6917.876,95.437,540.659,538.823,0.0
54006.0,STARLINK-5096,PAYLOAD,2024-06-21 03:46:58,15.08831112,0.0001357,53.2162,146.3045,89.5938,270.5209,-6.5033e-06,-3.91e-06,0.0,0 STARLINK-5096,1 54006U 22125AU  24173.15762160 -.00000391  00000-0 -65033-5 0  9999,2 54006  53.2162 146.3045 0001357  89.5938 270.5209 15.08831112 94937,6917.908,95.438,540.711,538.834,0.0
54006.0,STARLINK-5096,PAYLOAD,2024-06-21 22:51:36,15.08835764,0.0001329,53.2161,142.7355,86.6877,273.4268,-6.8139e-06,-3.96e-06,0.0,0 STARLINK-5096,1 54006U 22125AU  24173.95250202 -.00000396  00000-0 -68139-5 0  9991,2 54006  53.2161 142.7355 0001329  86.6877 273.4268 15.08835764 94999,6917.893,95.438,540.678,538.839,0.0
54006.0,STARLINK-5096,PAYLOAD,2024-06-22 03:37:45,15.08838178,0.0001354,53.2164,141.8437,87.8309,272.2839,1.1532e-05,-1.04e-06,0.0,0 STARLINK-5096,1 54006U 22125AU  24174.15122027 -.00000104  00000-0  11532-4 0  9997,2 54006  53.2164 141.8437 0001354  87.8309 272.2839 15.08838178 95088,6917.886,95.438,540.688,538.814,0.0
54006.0,STARLINK-5096,PAYLOAD,2024-06-22 06:48:31,15.08839853,0.0001363,53.2165,141.2489,87.1044,273.0104,2.5382e-05,1.16e-06,0.0,0 STARLINK-5096,1 54006U 22125AU  24174.28369896  .00000116  00000-0  25382-4 0  9998,2 54006  53.2165 141.2489 0001363  87.1044 273.0104 15.08839853 95040,6917.881,95.438,540.689,538.803,0.0
54006.0,STARLINK-5096,PAYLOAD,2024-06-22 21:07:00,15.08834984,0.0001403,53.217,138.574,89.7456,270.3697,6.8876e-05,8.08e-06,0.0,0 STARLINK-5096,1 54006U 22125AU  24174.87986208  .00000808  00000-0  68876-4 0  9998,2 54006  53.2170 138.5740 0001403  89.7456 270.3697 15.08834984 95132,6917.896,95.438,540.731,538.79,0.0
54006.0,STARLINK-5096,PAYLOAD,2024-06-23 05:03:55,15.08837709,0.0001406,53.2169,137.0877,88.6556,271.4597,8.7523e-05,1.105e-05,0.0,0 STARLINK-5096,1 54006U 22125AU  24175.21106064  .00001105  00000-0  87523-4 0  9992,2 54006  53.2169 137.0877 0001406  88.6556 271.4597 15.08837709 95248,6917.887,95.438,540.725,538.78,0.0
54006.0,STARLINK-5096,PAYLOAD,2024-06-23 06:39:18,15.08839658,0.0001429,53.217,136.7899,90.0823,270.0333,0.00010217,1.338e-05,0.0,0 STARLINK-5096,1 54006U 22125AU  24175.27729899  .00001338  00000-0  10217-3 0  9998,2 54006  53.2170 136.7899 0001429  90.0823 270.0333 15.08839658 95191,6917.881,95.438,540.735,538.758,0.0
54006.0,STARLINK-5096,PAYLOAD,2024-06-24 03:19:18,15.0884948,0.0001427,53.2171,132.9243,86.9073,273.2083,9.9912e-05,1.303e-05,0.0,0 STARLINK-5096,1 54006U 22125AU  24176.13841115  .00001303  00000-0  99912-4 0  9992,2 54006  53.2171 132.9243 0001427  86.9073 273.2083 15.08849480 95384,6917.851,95.437,540.704,538.729,0.0
54006.0,STARLINK-5096,PAYLOAD,2024-06-24 06:30:04,15.0885329,0.0001437,53.217,132.3292,86.3259,273.7897,0.0001291,1.768e-05,0.0,0 STARLINK-5096,1 54006U 22125AU  24176.27088700  .00001768  00000-0  12910-3 0  9997,2 54006  53.2170 132.3292 0001437  86.3259 273.7897 15.08853290 95340,6917.84,95.437,540.699,538.711,0.0
54006.0,STARLINK-5096,PAYLOAD,2024-06-25 03:10:06,15.08836934,0.000146,53.2171,128.4617,105.6097,254.5056,-5.7565e-05,-1.204e-05,0.0,0 STARLINK-5096,1 54006U 22125AU  24177.13202267 -.00001204  00000-0 -57565-4 0  9992,2 54006  53.2171 128.4617 0001460 105.6097 254.5056 15.08836934 95530,6917.89,95.438,540.765,538.745,0.0
